*******************************************************************************
JPL/HORIZONS                186 Celuta (A878 GA)           2023-Sep-04 11:04:53
Rec #:     186 (+COV) Soln.date: 2023-Aug-22_12:08:48   # obs: 6943 (1883-2023)
 
IAU76/J2000 helio. ecliptic osc. elements (au, days, deg., period=Julian yrs):
 
  EPOCH=  2457253.5 ! 2015-Aug-19.00 (TDB)         Residual RMS= .30728
   EC= .1493954490308559   QR= 2.01011422975967    TP= 2457911.860787956
   OM= 14.7823906982752    W=  315.3449085274985   IN= 13.1783448481554
   A= 2.363159505165389    MA= 181.3806616798178   ADIST= 2.716204780571107
   PER= 3.63285            N= .271309199           ANGMOM= .026147282
   DAN= 2.08847            DDN= 2.58515            L= 330.8915804
   B= -9.2205303           MOID= 1.02213001        TP= 2017-Jun-07.3607879560
 
Asteroid physical parameters (km, seconds, rotational period in hours):
   GM= n.a.                RAD= 24.995             ROTPER= 19.842
   H= 9.12                 G= .150                 B-V= .859
                           ALBEDO= .1929           STYP= K

ASTEROID comments: 
1: soln ref.= JPL#95, OCC=0
2: source=ORB
*******************************************************************************


*******************************************************************************
Ephemeris / API_USER Mon Sep  4 11:04:53 2023 Pasadena, USA      / Horizons
*******************************************************************************
Target body name: 186 Celuta (A878 GA)            {source: JPL#95}
Center body name: Solar System Barycenter (0)     {source: DE441}
Center-site name: BODY CENTER
*******************************************************************************
Start time      : A.D. 2023-Aug-12 00:00:00.0000 TDB
Stop  time      : A.D. 2023-Aug-13 00:00:00.0000 TDB
Step-size       : 2880 minutes
*******************************************************************************
Center geodetic : 0.0, 0.0, 0.0                   {E-lon(deg),Lat(deg),Alt(km)}
Center cylindric: 0.0, 0.0, 0.0                   {E-lon(deg),Dxy(km),Dz(km)}
Center radii    : (undefined)
Small perturbers: Yes                             {source: SB441-N16}
Output units    : KM-S
Calendar mode   : Mixed Julian/Gregorian
Output type     : GEOMETRIC cartesian states
Output format   : 2 (position and velocity)
Reference frame : Ecliptic of J2000.0
*******************************************************************************
Initial IAU76/J2000 heliocentric ecliptic osculating elements (au, days, deg.):
  EPOCH=  2457253.5 ! 2015-Aug-19.00 (TDB)         Residual RMS= .30728        
   EC= .1493954490308559   QR= 2.01011422975967    TP= 2457911.860787956       
   OM= 14.7823906982752    W=  315.3449085274985   IN= 13.1783448481554        
  Equivalent ICRF heliocentric cartesian coordinates (au, au/d):
   X=-2.366670684262390E+00  Y= 9.883194781320318E-01  Z= 8.941148800565205E-01
  VX=-4.663734581905677E-03 VY=-6.953192918740813E-03 VZ=-4.751478307675886E-03
Asteroid physical parameters (km, seconds, rotational period in hours):        
   GM= n.a.                RAD= 24.995             ROTPER= 19.842              
   H= 9.12                 G= .150                 B-V= .859                   
                           ALBEDO= .1929           STYP= K                     
*******************************************************************************
JDTDB
   X     Y     Z
   VX    VY    VZ
*******************************************************************************
$$SOE
2460168.500000000 = A.D. 2023-Aug-12 00:00:00.0000 TDB 
 X =-3.348314559745056E+08 Y =-1.723315351244256E+08 Z =-1.910394182508325E+07
 VX= 1.043147038389364E+01 VY=-1.440216306565038E+01 VZ=-3.881036155127100E+00
$$EOE
*******************************************************************************
 
TIME

  Barycentric Dynamical Time ("TDB" or T_eph) output was requested. This
continuous coordinate time is equivalent to the relativistic proper time
of a clock at rest in a reference frame co-moving with the solar system
barycenter but outside the system's gravity well. It is the independent
variable in the solar system relativistic equations of motion.

  TDB runs at a uniform rate of one SI second per second and is independent
of irregularities in Earth's rotation.
 
CALENDAR SYSTEM

  Mixed calendar mode was active such that calendar dates after AD 1582-Oct-15
(if any) are in the modern Gregorian system. Dates prior to 1582-Oct-5 (if any)
are in the Julian calendar system, which is automatically extended for dates
prior to its adoption on 45-Jan-1 BC.  The Julian calendar is useful for
matching historical dates. The Gregorian calendar more accurately corresponds
to the Earth's orbital motion and seasons. A "Gregorian-only" calendar mode is
available if such physical events are the primary interest.

REFERENCE FRAME AND COORDINATES

  Ecliptic at the standard reference epoch

    Reference epoch: J2000.0
    X-Y plane: adopted Earth orbital plane at the reference epoch
               Note: IAU76 obliquity of 84381.448 arcseconds wrt ICRF X-Y plane
    X-axis   : ICRF
    Z-axis   : perpendicular to the X-Y plane in the directional (+ or -) sense
               of Earth's north pole at the reference epoch.

  Symbol meaning:

    JDTDB    Julian Day Number, Barycentric Dynamical Time
      X      X-component of position vector (km)
      Y      Y-component of position vector (km)
      Z      Z-component of position vector (km)
      VX     X-component of velocity vector (km/sec)                           
      VY     Y-component of velocity vector (km/sec)                           
      VZ     Z-component of velocity vector (km/sec)                           

ABERRATIONS AND CORRECTIONS

 Geometric state vectors have NO corrections or aberrations applied.

Computations by ...

    Solar System Dynamics Group, Horizons On-Line Ephemeris System
    4800 Oak Grove Drive, Jet Propulsion Laboratory
    Pasadena, CA  91109   USA

    General site: https://ssd.jpl.nasa.gov/
    Mailing list: https://ssd.jpl.nasa.gov/email_list.html
    System news : https://ssd.jpl.nasa.gov/horizons/news.html
    User Guide  : https://ssd.jpl.nasa.gov/horizons/manual.html
    Connect     : browser        https://ssd.jpl.nasa.gov/horizons/app.html#/x
                  API            https://ssd-api.jpl.nasa.gov/doc/horizons.html
                  command-line   telnet ssd.jpl.nasa.gov 6775
                  e-mail/batch   https://ssd.jpl.nasa.gov/ftp/ssd/hrzn_batch.txt
                  scripts        https://ssd.jpl.nasa.gov/ftp/ssd/SCRIPTS
    Author      : Jon.D.Giorgini@jpl.nasa.gov
*******************************************************************************
